{"type": "FeatureCollection", "features": [ {"type": "Feature", "properties": {"norad_id": 66459, "name": "STARLINK-35449", "group": "last-30-days", "lat": -6.048818790681981, "lon": -70.16067566054114, "alt_km": 416.0345565425787, "timestamp": "2025-12-07T05:38:08.683889+00:00", "meta": {"OBJECT_NAME": "STARLINK-35449", "OBJECT_ID": "2025-262D", "EPOCH": "2025-12-06T14:00:01.999872", "MEAN_MOTION": 15.50635549, "ECCENTRICITY": 0.00011843, "INCLINATION": 43.0004, "RA_OF_ASC_NODE": 107.121, "ARG_OF_PERICENTER": 273.5934, "MEAN_ANOMALY": 234.4593, "EPHEMERIS_TYPE": 0, "CLASSIFICATION_TYPE": "U", "NORAD_CAT_ID": 66459, "ELEMENT_SET_NO": 999, "REV_AT_EPOCH": 464, "BSTAR": -0.002939069, "MEAN_MOTION_DOT": -0.00169422, "MEAN_MOTION_DDOT": 0}, "tle": {"line1": "1 66459U 25262D   25340.58335648 -.00169422  00000+0 -29391-2 0  9994", "line2": "2 66459  43.0004 107.1210 0001184 273.5934 234.4593 15.50635549  4649"}}, "geometry": {"type": "Point", "coordinates": [-70.16067566054114, -6.048818790681981]}}, {"type": "Feature", "properties": {"norad_id": 66460, "name": "STARLINK-35424", "group": "last-30-days", "lat": -7.4164178176538424, "lon": -68.665145796194, "alt_km": 415.79776298737306, "timestamp": "2025-12-07T05:38:08.683899+00:00", "meta": {"OBJECT_NAME": "STARLINK-35424", "OBJECT_ID": "2025-262E", "EPOCH": "2025-12-06T14:00:01.999872", "MEAN_MOTION": 15.50591626, "ECCENTRICITY": 0.00012549, "INCLINATION": 43.0004, "RA_OF_ASC_NODE": 107.1165, "ARG_OF_PERICENTER": 273.2095, "MEAN_ANOMALY": 236.7723, "EPHEMERIS_TYPE": 0, "CLASSIFICATION_TYPE": "U", "NORAD_CAT_ID": 66460, "ELEMENT_SET_NO": 999, "REV_AT_EPOCH": 464, "BSTAR": -0.00074048245, "MEAN_MOTION_DOT": -0.0004356, "MEAN_MOTION_DDOT": 0}, "tle": {"line1": "1 66460U 25262E   25340.58335648 -.00043560  00000+0 -74048-3 0  9990", "line2": "2 66460  43.0004 107.1165 0001254 273.2095 236.7723 15.50591626  4640"}}, "geometry": {"type": "Point", "coordinates": [-68.665145796194, -7.4164178176538424]}}, {"type": "Feature", "properties": {"norad_id": 66461, "name": "STARLINK-35132", "group": "last-30-days", "lat": -8.657223795552532, "lon": -67.2953181727136, "alt_km": 416.15480036755616, "timestamp": "2025-12-07T05:38:08.683909+00:00", "meta": {"OBJECT_NAME": "STARLINK-35132", "OBJECT_ID": "2025-262F", "EPOCH": "2025-12-06T14:00:01.999872", "MEAN_MOTION": 15.50635137, "ECCENTRICITY": 0.00011489, "INCLINATION": 43.0004, "RA_OF_ASC_NODE": 107.1121, "ARG_OF_PERICENTER": 267.9034, "MEAN_ANOMALY": 243.9951, "EPHEMERIS_TYPE": 0, "CLASSIFICATION_TYPE": "U", "NORAD_CAT_ID": 66461, "ELEMENT_SET_NO": 999, "REV_AT_EPOCH": 464, "BSTAR": -0.0027276601, "MEAN_MOTION_DOT": -0.00157494, "MEAN_MOTION_DDOT": 0}, "tle": {"line1": "1 66461U 25262F   25340.58335648 -.00157494  00000+0 -27277-2 0  9994", "line2": "2 66461  43.0004 107.1121 0001148 267.9034 243.9951 15.50635137  4647"}}, "geometry": {"type": "Point", "coordinates": [-67.2953181727136, -8.657223795552532]}}, {"type": "Feature", "properties": {"norad_id": 66462, "name": "STARLINK-35499", "group": "last-30-days", "lat": -9.941299437776669, "lon": -65.86343382040248, "alt_km": 416.29991332394275, "timestamp": "2025-12-07T05:38:08.683919+00:00", "meta": {"OBJECT_NAME": "STARLINK-35499", "OBJECT_ID": "2025-262G", "EPOCH": "2025-12-06T14:00:01.999872", "MEAN_MOTION": 15.50642366, "ECCENTRICITY": 0.00011688, "INCLINATION": 43.0004, "RA_OF_ASC_NODE": 107.1066, "ARG_OF_PERICENTER": 269.1046, "MEAN_ANOMALY": 244.7057, "EPHEMERIS_TYPE": 0, "CLASSIFICATION_TYPE": "U", "NORAD_CAT_ID": 66462, "ELEMENT_SET_NO": 999, "REV_AT_EPOCH": 464, "BSTAR": -0.0028915983, "MEAN_MOTION_DOT": -0.00166787, "MEAN_MOTION_DDOT": 0}, "tle": {"line1": "1 66462U 25262G   25340.58335648 -.00166787  00000+0 -28916-2 0  9991", "line2": "2 66462  43.0004 107.1066 0001168 269.1046 244.7057 15.50642366  4643"}}, "geometry": {"type": "Point", "coordinates": [-65.86343382040248, -9.941299437776669]}}, {"type": "Feature", "properties": {"norad_id": 66463, "name": "STARLINK-35463", "group": "last-30-days", "lat": -12.492220626429738, "lon": -62.96020684821036, "alt_km": 416.4778844518323, "timestamp": "2025-12-07T05:38:08.683943+00:00", "meta": {"OBJECT_NAME": "STARLINK-35463", "OBJECT_ID": "2025-262H", "EPOCH": "2025-12-06T14:00:01.999872", "MEAN_MOTION": 15.50640722, "ECCENTRICITY": 0.0001354, "INCLINATION": 43.0005, "RA_OF_ASC_NODE": 107.0971, "ARG_OF_PERICENTER": 268.8277, "MEAN_ANOMALY": 248.8163, "EPHEMERIS_TYPE": 0, "CLASSIFICATION_TYPE": "U", "NORAD_CAT_ID": 66463, "ELEMENT_SET_NO": 999, "REV_AT_EPOCH": 464, "BSTAR": -0.0028553848, "MEAN_MOTION_DOT": -0.00164738, "MEAN_MOTION_DDOT": 0}, "tle": {"line1": "1 66463U 25262H   25340.58335648 -.00164738  00000+0 -28554-2 0  9994", "line2": "2 66463  43.0005 107.0971 0001354 268.8277 248.8163 15.50640722  4645"}}, "geometry": {"type": "Point", "coordinates": [-62.96020684821036, -12.492220626429738]}}, {"type": "Feature", "properties": {"norad_id": 66464, "name": "STARLINK-35435", "group": "last-30-days", "lat": -11.224333226200056, "lon": -64.4136809944253, "alt_km": 416.4020633363025, "timestamp": "2025-12-07T05:38:08.683955+00:00", "meta": {"OBJECT_NAME": "STARLINK-35435", "OBJECT_ID": "2025-262J", "EPOCH": "2025-12-06T14:00:01.999872", "MEAN_MOTION": 15.50639766, "ECCENTRICITY": 0.00011405, "INCLINATION": 43.0004, "RA_OF_ASC_NODE": 107.1018, "ARG_OF_PERICENTER": 269.5109, "MEAN_ANOMALY": 246.2157, "EPHEMERIS_TYPE": 0, "CLASSIFICATION_TYPE": "U", "NORAD_CAT_ID": 66464, "ELEMENT_SET_NO": 999, "REV_AT_EPOCH": 464, "BSTAR": -0.0027684307, "MEAN_MOTION_DOT": -0.00159822, "MEAN_MOTION_DDOT": 0}, "tle": {"line1": "1 66464U 25262J   25340.58335648 -.00159822  00000+0 -27684-2 0  9996", "line2": "2 66464  43.0004 107.1018 0001140 269.5109 246.2157 15.50639766  4644"}}, "geometry": {"type": "Point", "coordinates": [-64.4136809944253, -11.224333226200056]}}, {"type": "Feature", "properties": {"norad_id": 66465, "name": "STARLINK-35448", "group": "last-30-days", "lat": -15.023336239786996, "lon": -59.984580940967845, "alt_km": 416.5966390794556, "timestamp": "2025-12-07T05:38:08.683965+00:00", "meta": {"OBJECT_NAME": "STARLINK-35448", "OBJECT_ID": "2025-262K", "EPOCH": "2025-12-06T14:00:01.999872", "MEAN_MOTION": 15.50611949, "ECCENTRICITY": 0.00014596, "INCLINATION": 43.0005, "RA_OF_ASC_NODE": 107.0878, "ARG_OF_PERICENTER": 271.8593, "MEAN_ANOMALY": 249.6264, "EPHEMERIS_TYPE": 0, "CLASSIFICATION_TYPE": "U", "NORAD_CAT_ID": 66465, "ELEMENT_SET_NO": 999, "REV_AT_EPOCH": 464, "BSTAR": -0.0019970976, "MEAN_MOTION_DOT": -0.0011592, "MEAN_MOTION_DDOT": 0}, "tle": {"line1": "1 66465U 25262K   25340.58335648 -.00115920  00000+0 -19971-2 0  9998", "line2": "2 66465  43.0005 107.0878 0001459 271.8593 249.6264 15.50611949  4644"}}, "geometry": {"type": "Point", "coordinates": [-59.984580940967845, -15.023336239786996]}}, {"type": "Feature", "properties": {"norad_id": 66466, "name": "STARLINK-35388", "group": "last-30-days", "lat": -16.271780409270516, "lon": -58.47524631882422, "alt_km": 416.7197752927141, "timestamp": "2025-12-07T05:38:08.683977+00:00", "meta": {"OBJECT_NAME": "STARLINK-35388", "OBJECT_ID": "2025-262L", "EPOCH": "2025-12-06T14:00:01.999872", "MEAN_MOTION": 15.50614295, "ECCENTRICITY": 0.00012386, "INCLINATION": 43.0005, "RA_OF_ASC_NODE": 107.0821, "ARG_OF_PERICENTER": 271.0722, "MEAN_ANOMALY": 252.3293, "EPHEMERIS_TYPE": 0, "CLASSIFICATION_TYPE": "U", "NORAD_CAT_ID": 66466, "ELEMENT_SET_NO": 999, "REV_AT_EPOCH": 464, "BSTAR": -0.0020286671, "MEAN_MOTION_DOT": -0.00117727, "MEAN_MOTION_DDOT": 0}, "tle": {"line1": "1 66466U 25262L   25340.58335648 -.00117727  00000+0 -20287-2 0  9998", "line2": "2 66466  43.0005 107.0821 0001238 271.0722 252.3293 15.50614295  4644"}}, "geometry": {"type": "Point", "coordinates": [-58.47524631882422, -16.271780409270516]}}, {"type": "Feature", "properties": {"norad_id": 66467, "name": "STARLINK-35682", "group": "last-30-days", "lat": -13.766612290560314, "lon": -61.47541854277291, "alt_km": 416.4835859538325, "timestamp": "2025-12-07T05:38:08.683988+00:00", "meta": {"OBJECT_NAME": "STARLINK-35682", "OBJECT_ID": "2025-262M", "EPOCH": "2025-12-06T14:00:01.999872", "MEAN_MOTION": 15.50619528, "ECCENTRICITY": 0.00014153, "INCLINATION": 43.0005, "RA_OF_ASC_NODE": 107.0924, "ARG_OF_PERICENTER": 269.3756, "MEAN_ANOMALY": 250.1877, "EPHEMERIS_TYPE": 0, "CLASSIFICATION_TYPE": "U", "NORAD_CAT_ID": 66467, "ELEMENT_SET_NO": 999, "REV_AT_EPOCH": 464, "BSTAR": -0.0021579512, "MEAN_MOTION_DOT": -0.00125116, "MEAN_MOTION_DDOT": 0}, "tle": {"line1": "1 66467U 25262M   25340.58335648 -.00125116  00000+0 -21580-2 0  9997", "line2": "2 66467  43.0005 107.0924 0001415 269.3756 250.1877 15.50619528  4641"}}, "geometry": {"type": "Point", "coordinates": [-61.47541854277291, -13.766612290560314]}}, {"type": "Feature", "properties": {"norad_id": 66468, "name": "STARLINK-35331", "group": "last-30-days", "lat": -17.501625154517185, "lon": -56.955125067301815, "alt_km": 416.8091100418724, "timestamp": "2025-12-07T05:38:08.684000+00:00", "meta": {"OBJECT_NAME": "STARLINK-35331", "OBJECT_ID": "2025-262N", "EPOCH": "2025-12-06T14:00:01.999872", "MEAN_MOTION": 15.50624291, "ECCENTRICITY": 0.00013947, "INCLINATION": 43.0005, "RA_OF_ASC_NODE": 107.0775, "ARG_OF_PERICENTER": 271.2114, "MEAN_ANOMALY": 254.1044, "EPHEMERIS_TYPE": 0, "CLASSIFICATION_TYPE": "U", "NORAD_CAT_ID": 66468, "ELEMENT_SET_NO": 999, "REV_AT_EPOCH": 464, "BSTAR": -0.0023294318, "MEAN_MOTION_DOT": -0.00134887, "MEAN_MOTION_DDOT": 0}, "tle": {"line1": "1 66468U 25262N   25340.58335648 -.00134887  00000+0 -23294-2 0  9997", "line2": "2 66468  43.0005 107.0775 0001394 271.2114 254.1044 15.50624291  4645"}}, "geometry": {"type": "Point", "coordinates": [-56.955125067301815, -17.501625154517185]}}]}